{
  "type": "FeatureCollection",
  "features": [
    {
      "type": "Feature",
      "properties": {
        "norad_id": 36622,
        "name": "COSMOS 2251 DEB",
        "group": "cosmos-2251-debris",
        "lat": -53.764084702321576,
        "lon": 103.81614206139784,
        "alt_km": 612.1217508464197,
        "timestamp": "2025-12-22T05:49:03.898731+00:00",
        "meta_object_name": "COSMOS 2251 DEB",
        "meta_object_id": "1993-036BEL",
        "meta_epoch": "2025-12-21T02:25:32.891232",
        "meta_mean_motion": 14.76266082,
        "meta_eccentricity": 0.00688173,
        "meta_inclination": 74.0142,
        "meta_ra_of_asc_node": 129.0805,
        "meta_arg_of_pericenter": 262.8361,
        "meta_mean_anomaly": 96.4986,
        "meta_ephemeris_type": 0,
        "meta_classification_type": "U",
        "meta_norad_cat_id": 36622,
        "meta_element_set_no": 999,
        "meta_rev_at_epoch": 66873,
        "meta_bstar": 0.00047291179,
        "meta_mean_motion_dot": 3.371e-05,
        "meta_mean_motion_ddot": 0,
        "tle_line1": "1 36622U 93036BEL 25355.10107513  .00003371  00000+0  47291-3 0  9997",
        "tle_line2": "2 36622  74.0142 129.0805 0068817 262.8361  96.4986 14.76266082668736"
      },
      "geometry": {
        "type": "Point",
        "coordinates": [
          103.81614206139784,
          -53.764084702321576
        ]
      }
    },
    {
      "type": "Feature",
      "properties": {
        "norad_id": 36632,
        "name": "COSMOS 2251 DEB",
        "group": "cosmos-2251-debris",
        "lat": 52.37879132280345,
        "lon": -63.463460867596844,
        "alt_km": 723.6290220118872,
        "timestamp": "2025-12-22T05:49:03.898741+00:00",
        "meta_object_name": "COSMOS 2251 DEB",
        "meta_object_id": "1993-036BEW",
        "meta_epoch": "2025-12-21T01:16:53.891328",
        "meta_mean_motion": 14.43214407,
        "meta_eccentricity": 0.00326378,
        "meta_inclination": 74.0029,
        "meta_ra_of_asc_node": 276.8952,
        "meta_arg_of_pericenter": 22.7567,
        "meta_mean_anomaly": 337.5028,
        "meta_ephemeris_type": 0,
        "meta_classification_type": "U",
        "meta_norad_cat_id": 36632,
        "meta_element_set_no": 999,
        "meta_rev_at_epoch": 65335,
        "meta_bstar": 0.00052346951,
        "meta_mean_motion_dot": 1.745e-05,
        "meta_mean_motion_ddot": 0,
        "tle_line1": "1 36632U 93036BEW 25355.05340152  .00001745  00000+0  52347-3 0  9991",
        "tle_line2": "2 36632  74.0029 276.8952 0032637  22.7567 337.5028 14.43214407653353"
      },
      "geometry": {
        "type": "Point",
        "coordinates": [
          -63.463460867596844,
          52.37879132280345
        ]
      }
    },
    {
      "type": "Feature",
      "properties": {
        "norad_id": 37084,
        "name": "COSMOS 2251 DEB",
        "group": "cosmos-2251-debris",
        "lat": -51.52078239022556,
        "lon": -16.786048104694355,
        "alt_km": 504.6241477160711,
        "timestamp": "2025-12-22T05:49:03.898751+00:00",
        "meta_object_name": "COSMOS 2251 DEB",
        "meta_object_id": "1993-036BFE",
        "meta_epoch": "2025-12-21T01:34:58.963872",
        "meta_mean_motion": 15.01108082,
        "meta_eccentricity": 0.00971077,
        "meta_inclination": 74.0265,
        "meta_ra_of_asc_node": 144.4866,
        "meta_arg_of_pericenter": 223.0603,
        "meta_mean_anomaly": 136.296,
        "meta_ephemeris_type": 0,
        "meta_classification_type": "U",
        "meta_norad_cat_id": 37084,
        "meta_element_set_no": 999,
        "meta_rev_at_epoch": 66392,
        "meta_bstar": 0.0004151698,
        "meta_mean_motion_dot": 5.838e-05,
        "meta_mean_motion_ddot": 0,
        "tle_line1": "1 37084U 93036BFE 25355.06596023  .00005838  00000+0  41517-3 0  9998",
        "tle_line2": "2 37084  74.0265 144.4866 0097107 223.0603 136.2960 15.01108082663920"
      },
      "geometry": {
        "type": "Point",
        "coordinates": [
          -16.786048104694355,
          -51.52078239022556
        ]
      }
    },
    {
      "type": "Feature",
      "properties": {
        "norad_id": 37085,
        "name": "COSMOS 2251 DEB",
        "group": "cosmos-2251-debris",
        "lat": -71.85440979541808,
        "lon": 76.7980547144773,
        "alt_km": 451.44577838049554,
        "timestamp": "2025-12-22T05:49:03.898761+00:00",
        "meta_object_name": "COSMOS 2251 DEB",
        "meta_object_id": "1993-036BFF",
        "meta_epoch": "2025-12-13T09:00:31.802112",
        "meta_mean_motion": 15.41681601,
        "meta_eccentricity": 0.00213151,
        "meta_inclination": 73.9479,
        "meta_ra_of_asc_node": 214.6598,
        "meta_arg_of_pericenter": 52.8263,
        "meta_mean_anomaly": 307.4887,
        "meta_ephemeris_type": 0,
        "meta_classification_type": "U",
        "meta_norad_cat_id": 37085,
        "meta_element_set_no": 999,
        "meta_rev_at_epoch": 67147,
        "meta_bstar": 0.0024657072,
        "meta_mean_motion_dot": 0.00106285,
        "meta_mean_motion_ddot": 0,
        "tle_line1": "1 37085U 93036BFF 25347.37536808  .00106285  00000+0  24657-2 0  9992",
        "tle_line2": "2 37085  73.9479 214.6598 0021315  52.8263 307.4887 15.41681601671472"
      },
      "geometry": {
        "type": "Point",
        "coordinates": [
          76.7980547144773,
          -71.85440979541808
        ]
      }
    },
    {
      "type": "Feature",
      "properties": {
        "norad_id": 37089,
        "name": "COSMOS 2251 DEB",
        "group": "cosmos-2251-debris",
        "lat": -40.56216375822796,
        "lon": -38.00999228283126,
        "alt_km": 626.1436003638664,
        "timestamp": "2025-12-22T05:49:03.898771+00:00",
        "meta_object_name": "COSMOS 2251 DEB",
        "meta_object_id": "1993-036BFK",
        "meta_epoch": "2025-12-21T15:34:23.731392",
        "meta_mean_motion": 14.53121083,
        "meta_eccentricity": 0.0134841,
        "meta_inclination": 74.0377,
        "meta_ra_of_asc_node": 128.9285,
        "meta_arg_of_pericenter": 227.2834,
        "meta_mean_anomaly": 131.6914,
        "meta_ephemeris_type": 0,
        "meta_classification_type": "U",
        "meta_norad_cat_id": 37089,
        "meta_element_set_no": 999,
        "meta_rev_at_epoch": 66239,
        "meta_bstar": 0.0022471,
        "meta_mean_motion_dot": 0.00010467,
        "meta_mean_motion_ddot": 0,
        "tle_line1": "1 37089U 93036BFK 25355.64888578  .00010467  00000+0  22471-2 0  9997",
        "tle_line2": "2 37089  74.0377 128.9285 0134841 227.2834 131.6914 14.53121083662390"
      },
      "geometry": {
        "type": "Point",
        "coordinates": [
          -38.00999228283126,
          -40.56216375822796
        ]
      }
    },
    {
      "type": "Feature",
      "properties": {
        "norad_id": 37094,
        "name": "COSMOS 2251 DEB",
        "group": "cosmos-2251-debris",
        "lat": -10.193034036651568,
        "lon": -73.31614323012629,
        "alt_km": 801.8208800805269,
        "timestamp": "2025-12-22T05:49:03.898781+00:00",
        "meta_object_name": "COSMOS 2251 DEB",
        "meta_object_id": "1993-036BFQ",
        "meta_epoch": "2025-12-10T15:45:11.030688",
        "meta_mean_motion": 14.37808892,
        "meta_eccentricity": 0.0084108,
        "meta_inclination": 74.1091,
        "meta_ra_of_asc_node": 124.9809,
        "meta_arg_of_pericenter": 91.4784,
        "meta_mean_anomaly": 269.6007,
        "meta_ephemeris_type": 0,
        "meta_classification_type": "U",
        "meta_norad_cat_id": 37094,
        "meta_element_set_no": 999,
        "meta_rev_at_epoch": 84476,
        "meta_bstar": 0.0015212,
        "meta_mean_motion_dot": 4.753e-05,
        "meta_mean_motion_ddot": 0,
        "tle_line1": "1 37094U 93036BFQ 25344.65637767  .00004753  00000+0  15212-2 0  9990",
        "tle_line2": "2 37094  74.1091 124.9809 0084108  91.4784 269.6007 14.37808892844763"
      },
      "geometry": {
        "type": "Point",
        "coordinates": [
          -73.31614323012629,
          -10.193034036651568
        ]
      }
    },
    {
      "type": "Feature",
      "properties": {
        "norad_id": 37095,
        "name": "COSMOS 2251 DEB",
        "group": "cosmos-2251-debris",
        "lat": 21.0739015016358,
        "lon": 179.58472733577966,
        "alt_km": 1005.9845539213511,
        "timestamp": "2025-12-22T05:49:03.898791+00:00",
        "meta_object_name": "COSMOS 2251 DEB",
        "meta_object_id": "1993-036BFR",
        "meta_epoch": "2025-12-20T05:48:30.438144",
        "meta_mean_motion": 14.03423265,
        "meta_eccentricity": 0.01937256,
        "meta_inclination": 73.8447,
        "meta_ra_of_asc_node": 176.6944,
        "meta_arg_of_pericenter": 233.1449,
        "meta_mean_anomaly": 125.1788,
        "meta_ephemeris_type": 0,
        "meta_classification_type": "U",
        "meta_norad_cat_id": 37095,
        "meta_element_set_no": 999,
        "meta_rev_at_epoch": 62741,
        "meta_bstar": 0.00075143733,
        "meta_mean_motion_dot": 1.362e-05,
        "meta_mean_motion_ddot": 0,
        "tle_line1": "1 37095U 93036BFR 25354.24201896  .00001362  00000+0  75144-3 0  9991",
        "tle_line2": "2 37095  73.8447 176.6944 0193725 233.1449 125.1788 14.03423265627411"
      },
      "geometry": {
        "type": "Point",
        "coordinates": [
          179.58472733577966,
          21.0739015016358
        ]
      }
    }
  ]
}